[{"OBJECT_NAME":"XINGYUN-2 02","OBJECT_ID":"2020-028B","EPOCH":"2026-03-10T00:08:18.521088","MEAN_MOTION":15.11086378,"ECCENTRICITY":0.0009258,"INCLINATION":97.5114,"RA_OF_ASC_NODE":76.7595,"ARG_OF_PERICENTER":249.9829,"MEAN_ANOMALY":110.0404,"EPHEMERIS_TYPE":0,"CLASSIFICATION_TYPE":"U","NORAD_CAT_ID":45603,"ELEMENT_SET_NO":999,"REV_AT_EPOCH":31985,"BSTAR":0.00013296102,"MEAN_MOTION_DOT":2.163e-5,"MEAN_MOTION_DDOT":0},{"OBJECT_NAME":"STARLINK-3935","OBJECT_ID":"2022-051S","EPOCH":"2026-03-09T13:04:03.710496","MEAN_MOTION":15.08833176,"ECCENTRICITY":0.00012782,"INCLINATION":53.2154,"RA_OF_ASC_NODE":129.7777,"ARG_OF_PERICENTER":97.6926,"MEAN_ANOMALY":262.4211,"EPHEMERIS_TYPE":0,"CLASSIFICATION_TYPE":"U","NORAD_CAT_ID":52549,"ELEMENT_SET_NO":999,"REV_AT_EPOCH":21142,"BSTAR":5.6562492e-5,"MEAN_MOTION_DOT":6.12e-6,"MEAN_MOTION_DDOT":0}]
